{"type": "FeatureCollection", "features": [ {"type": "Feature", "properties": {"norad_id": 29750, "name": "FENGYUN 1C DEB", "group": "fengyun-1c-debris", "lat": 42.41422425320316, "lon": 19.11188651863708, "alt_km": 875.1200384737049, "timestamp": "2025-12-24T09:46:31.275102+00:00", "meta": {"OBJECT_NAME": "FENGYUN 1C DEB", "OBJECT_ID": "1999-025AQ", "EPOCH": "2025-12-24T01:11:25.617120", "MEAN_MOTION": 14.09653477, "ECCENTRICITY": 0.0035077, "INCLINATION": 98.7535, "RA_OF_ASC_NODE": 26.8559, "ARG_OF_PERICENTER": 268.5558, "MEAN_ANOMALY": 120.0271, "EPHEMERIS_TYPE": 0, "CLASSIFICATION_TYPE": "U", "NORAD_CAT_ID": 29750, "ELEMENT_SET_NO": 999, "REV_AT_EPOCH": 97233, "BSTAR": 0.00019026, "MEAN_MOTION_DOT": 2.92e-06, "MEAN_MOTION_DDOT": 0}, "tle": {"line1": "1 29750U 99025AQ  25358.04960205  .00000292  00000+0  19026-3 0  9990", "line2": "2 29750  98.7535  26.8559 0035077 268.5558 120.0271 14.09653477972331"}}, "geometry": {"type": "Point", "coordinates": [19.11188651863708, 42.41422425320316]}}, {"type": "Feature", "properties": {"norad_id": 29751, "name": "FENGYUN 1C DEB", "group": "fengyun-1c-debris", "lat": 44.30476118784559, "lon": 17.508066501386963, "alt_km": 776.9751145777627, "timestamp": "2025-12-24T09:46:31.275113+00:00", "meta": {"OBJECT_NAME": "FENGYUN 1C DEB", "OBJECT_ID": "1999-025AR", "EPOCH": "2025-12-24T01:23:14.059104", "MEAN_MOTION": 14.23637933, "ECCENTRICITY": 0.0090161, "INCLINATION": 98.5403, "RA_OF_ASC_NODE": 25.6023, "ARG_OF_PERICENTER": 106.599, "MEAN_ANOMALY": 309.0833, "EPHEMERIS_TYPE": 0, "CLASSIFICATION_TYPE": "U", "NORAD_CAT_ID": 29751, "ELEMENT_SET_NO": 999, "REV_AT_EPOCH": 98234, "BSTAR": 0.00015095, "MEAN_MOTION_DOT": 3.17e-06, "MEAN_MOTION_DDOT": 0}, "tle": {"line1": "1 29751U 99025AR  25358.05780161  .00000317  00000+0  15095-3 0  9993", "line2": "2 29751  98.5403  25.6023 0090161 106.5990 309.0833 14.23637933982343"}}, "geometry": {"type": "Point", "coordinates": [17.508066501386963, 44.30476118784559]}}, {"type": "Feature", "properties": {"norad_id": 29754, "name": "FENGYUN 1C DEB", "group": "fengyun-1c-debris", "lat": -6.7264071906916305, "lon": 102.23392947862631, "alt_km": 853.8814914900413, "timestamp": "2025-12-24T09:46:31.275123+00:00", "meta": {"OBJECT_NAME": "FENGYUN 1C DEB", "OBJECT_ID": "1999-025AU", "EPOCH": "2025-12-23T13:34:24.659616", "MEAN_MOTION": 14.1918902, "ECCENTRICITY": 0.00365213, "INCLINATION": 98.8844, "RA_OF_ASC_NODE": 100.3332, "ARG_OF_PERICENTER": 208.6961, "MEAN_ANOMALY": 166.2554, "EPHEMERIS_TYPE": 0, "CLASSIFICATION_TYPE": "U", "NORAD_CAT_ID": 29754, "ELEMENT_SET_NO": 999, "REV_AT_EPOCH": 97508, "BSTAR": 0.00082676546, "MEAN_MOTION_DOT": 1.698e-05, "MEAN_MOTION_DDOT": 0}, "tle": {"line1": "1 29754U 99025AU  25357.56556319  .00001698  00000+0  82677-3 0  9990", "line2": "2 29754  98.8844 100.3332 0036521 208.6961 166.2554 14.19189020975084"}}, "geometry": {"type": "Point", "coordinates": [102.23392947862631, -6.7264071906916305]}}, {"type": "Feature", "properties": {"norad_id": 29758, "name": "FENGYUN 1C DEB", "group": "fengyun-1c-debris", "lat": 27.965275973320043, "lon": -60.71543388463495, "alt_km": 761.4696494942036, "timestamp": "2025-12-24T09:46:31.275134+00:00", "meta": {"OBJECT_NAME": "FENGYUN 1C DEB", "OBJECT_ID": "1999-025AY", "EPOCH": "2025-12-23T13:40:35.619744", "MEAN_MOTION": 14.41139687, "ECCENTRICITY": 0.00221802, "INCLINATION": 98.8554, "RA_OF_ASC_NODE": 113.6695, "ARG_OF_PERICENTER": 274.6407, "MEAN_ANOMALY": 214.836, "EPHEMERIS_TYPE": 0, "CLASSIFICATION_TYPE": "U", "NORAD_CAT_ID": 29758, "ELEMENT_SET_NO": 999, "REV_AT_EPOCH": 97827, "BSTAR": 0.0024919515, "MEAN_MOTION_DOT": 8.017e-05, "MEAN_MOTION_DDOT": 0}, "tle": {"line1": "1 29758U 99025AY  25357.56985671  .00008017  00000+0  24920-2 0  9999", "line2": "2 29758  98.8554 113.6695 0022180 274.6407 214.8360 14.41139687978277"}}, "geometry": {"type": "Point", "coordinates": [-60.71543388463495, 27.965275973320043]}}, {"type": "Feature", "properties": {"norad_id": 29760, "name": "FENGYUN 1C DEB", "group": "fengyun-1c-debris", "lat": -58.80113306720231, "lon": 14.996310727577882, "alt_km": 961.1972542388785, "timestamp": "2025-12-24T09:46:31.275145+00:00", "meta": {"OBJECT_NAME": "FENGYUN 1C DEB", "OBJECT_ID": "1999-025BA", "EPOCH": "2025-12-23T22:07:49.832256", "MEAN_MOTION": 14.08296051, "ECCENTRICITY": 0.0131342, "INCLINATION": 98.7628, "RA_OF_ASC_NODE": 359.7696, "ARG_OF_PERICENTER": 142.0971, "MEAN_ANOMALY": 218.9535, "EPHEMERIS_TYPE": 0, "CLASSIFICATION_TYPE": "U", "NORAD_CAT_ID": 29760, "ELEMENT_SET_NO": 999, "REV_AT_EPOCH": 97250, "BSTAR": 0.00014989, "MEAN_MOTION_DOT": 2.36e-06, "MEAN_MOTION_DDOT": 0}, "tle": {"line1": "1 29760U 99025BA  25357.92210454  .00000236  00000+0  14989-3 0  9992", "line2": "2 29760  98.7628 359.7696 0131342 142.0971 218.9535 14.08296051972501"}}, "geometry": {"type": "Point", "coordinates": [14.996310727577882, -58.80113306720231]}}, {"type": "Feature", "properties": {"norad_id": 29762, "name": "FENGYUN 1C DEB", "group": "fengyun-1c-debris", "lat": 34.97855466334289, "lon": 166.96547616309792, "alt_km": 948.6325728428292, "timestamp": "2025-12-24T09:46:31.275155+00:00", "meta": {"OBJECT_NAME": "FENGYUN 1C DEB", "OBJECT_ID": "1999-025BC", "EPOCH": "2025-12-23T21:32:34.463040", "MEAN_MOTION": 14.22604895, "ECCENTRICITY": 0.0203412, "INCLINATION": 98.5806, "RA_OF_ASC_NODE": 340.4049, "ARG_OF_PERICENTER": 303.125, "MEAN_ANOMALY": 113.4581, "EPHEMERIS_TYPE": 0, "CLASSIFICATION_TYPE": "U", "NORAD_CAT_ID": 29762, "ELEMENT_SET_NO": 999, "REV_AT_EPOCH": 98107, "BSTAR": 0.00032712, "MEAN_MOTION_DOT": 8.55e-06, "MEAN_MOTION_DDOT": 0}, "tle": {"line1": "1 29762U 99025BC  25357.89762110  .00000855  00000+0  32712-3 0  9992", "line2": "2 29762  98.5806 340.4049 0203412 303.1250 113.4581 14.22604895981073"}}, "geometry": {"type": "Point", "coordinates": [166.96547616309792, 34.97855466334289]}}, {"type": "Feature", "properties": {"norad_id": 29763, "name": "FENGYUN 1C DEB", "group": "fengyun-1c-debris", "lat": 65.8488674100939, "lon": 177.59165306835965, "alt_km": 783.9188598943374, "timestamp": "2025-12-24T09:46:31.275165+00:00", "meta": {"OBJECT_NAME": "FENGYUN 1C DEB", "OBJECT_ID": "1999-025BD", "EPOCH": "2025-12-24T04:11:12.102432", "MEAN_MOTION": 14.07883191, "ECCENTRICITY": 0.0127937, "INCLINATION": 98.7627, "RA_OF_ASC_NODE": 337.246, "ARG_OF_PERICENTER": 148.2939, "MEAN_ANOMALY": 225.5235, "EPHEMERIS_TYPE": 0, "CLASSIFICATION_TYPE": "U", "NORAD_CAT_ID": 29763, "ELEMENT_SET_NO": 999, "REV_AT_EPOCH": 97211, "BSTAR": 0.00024082, "MEAN_MOTION_DOT": 3.98e-06, "MEAN_MOTION_DDOT": 0}, "tle": {"line1": "1 29763U 99025BD  25358.17444563  .00000398  00000+0  24082-3 0  9997", "line2": "2 29763  98.7627 337.2460 0127937 148.2939 225.5235 14.07883191972114"}}, "geometry": {"type": "Point", "coordinates": [177.59165306835965, 65.8488674100939]}}, {"type": "Feature", "properties": {"norad_id": 29765, "name": "FENGYUN 1C DEB", "group": "fengyun-1c-debris", "lat": 61.901817759078305, "lon": -146.84929358026457, "alt_km": 855.8136110207097, "timestamp": "2025-12-24T09:46:31.275176+00:00", "meta": {"OBJECT_NAME": "FENGYUN 1C DEB", "OBJECT_ID": "1999-025BF", "EPOCH": "2025-12-24T00:47:34.586880", "MEAN_MOTION": 14.02152304, "ECCENTRICITY": 0.0060115, "INCLINATION": 98.829, "RA_OF_ASC_NODE": 15.8641, "ARG_OF_PERICENTER": 61.5612, "MEAN_ANOMALY": 326.4375, "EPHEMERIS_TYPE": 0, "CLASSIFICATION_TYPE": "U", "NORAD_CAT_ID": 29765, "ELEMENT_SET_NO": 999, "REV_AT_EPOCH": 96909, "BSTAR": -6.8771e-05, "MEAN_MOTION_DOT": -1.49e-06, "MEAN_MOTION_DDOT": 0}, "tle": {"line1": "1 29765U 99025BF  25358.03303920 -.00000149  00000+0 -68771-4 0  9995", "line2": "2 29765  98.8290  15.8641 0060115  61.5612 326.4375 14.02152304969091"}}, "geometry": {"type": "Point", "coordinates": [-146.84929358026457, 61.901817759078305]}}, {"type": "Feature", "properties": {"norad_id": 29766, "name": "FENGYUN 1C DEB", "group": "fengyun-1c-debris", "lat": 52.04259566871163, "lon": -63.90056430487093, "alt_km": 996.5833229632435, "timestamp": "2025-12-24T09:46:31.275186+00:00", "meta": {"OBJECT_NAME": "FENGYUN 1C DEB", "OBJECT_ID": "1999-025BG", "EPOCH": "2025-12-24T02:41:51.332352", "MEAN_MOTION": 13.97088606, "ECCENTRICITY": 0.0145643, "INCLINATION": 98.6866, "RA_OF_ASC_NODE": 307.1223, "ARG_OF_PERICENTER": 256.5449, "MEAN_ANOMALY": 113.3505, "EPHEMERIS_TYPE": 0, "CLASSIFICATION_TYPE": "U", "NORAD_CAT_ID": 29766, "ELEMENT_SET_NO": 999, "REV_AT_EPOCH": 95963, "BSTAR": 0.00088934, "MEAN_MOTION_DOT": 1.317e-05, "MEAN_MOTION_DDOT": 0}, "tle": {"line1": "1 29766U 99025BG  25358.11239968  .00001317  00000+0  88934-3 0  9993", "line2": "2 29766  98.6866 307.1223 0145643 256.5449 113.3505 13.97088606959639"}}, "geometry": {"type": "Point", "coordinates": [-63.90056430487093, 52.04259566871163]}}, {"type": "Feature", "properties": {"norad_id": 29767, "name": "FENGYUN 1C DEB", "group": "fengyun-1c-debris", "lat": -27.71029318618841, "lon": 141.63447916905514, "alt_km": 1129.2251434182208, "timestamp": "2025-12-24T09:46:31.275196+00:00", "meta": {"OBJECT_NAME": "FENGYUN 1C DEB", "OBJECT_ID": "1999-025BH", "EPOCH": "2025-12-23T17:56:44.071584", "MEAN_MOTION": 14.03451827, "ECCENTRICITY": 0.03328064, "INCLINATION": 98.1993, "RA_OF_ASC_NODE": 325.3815, "ARG_OF_PERICENTER": 30.0106, "MEAN_ANOMALY": 87.3104, "EPHEMERIS_TYPE": 0, "CLASSIFICATION_TYPE": "U", "NORAD_CAT_ID": 29767, "ELEMENT_SET_NO": 999, "REV_AT_EPOCH": 95754, "BSTAR": 0.0024674671, "MEAN_MOTION_DOT": 6.283e-05, "MEAN_MOTION_DDOT": 0}, "tle": {"line1": "1 29767U 99025BH  25357.74773231  .00006283  00000+0  24675-2 0  9996", "line2": "2 29767  98.1993 325.3815 0332806  30.0106  87.3104 14.03451827957549"}}, "geometry": {"type": "Point", "coordinates": [141.63447916905514, -27.71029318618841]}}]}